SL-3 R/B                
1 13403U 82079B   26077.59120960  .00005195  00000+0  20575-3 0  9992
2 13403  81.1491 182.5675 0025366 135.2628 225.0658 15.24926360379050
SL-14 R/B               
1 13553U 82092B   26077.11890876  .00000395  00000+0  41644-4 0  9999
2 13553  82.5677 133.5152 0018751 273.4594 119.8772 14.86674179330183
SL-3 R/B                
1 13819U 83010B   26077.49570598  .00012612  00000+0  25068-3 0  9998
2 13819  81.1067 351.4502 0017140  22.0984 338.0996 15.46660793359300
SL-3 R/B                
1 14208U 83075B   26077.59747890  .00008483  00000+0  22305-3 0  9996
2 14208  97.6135  82.5129 0021046 192.5801 167.4921 15.38624705331529
COSMOS 1536             
1 14699U 84013A   26077.32187109  .00005164  00000+0  21190-3 0  9999
2 14699  82.5413  99.2666 0012558 248.9361 111.0533 15.23938820273935
SL-14 R/B               
1 14820U 84027B   26077.44697757  .00000502  00000+0  54615-4 0  9998
2 14820  82.5397 236.7977 0016753 307.4941  52.4752 14.85985805248936
SL-8 R/B                
1 15483U 85006B   26076.94834749  .00000301  00000+0  10830-3 0  9997
2 15483  74.0436 245.9500 0018097 161.5600 313.5292 14.37789274155217
SL-12 R/B(2)            
1 15772U 85042D   26077.42725204  .00000014  00000+0  27577-4 0  9995
2 15772  71.1067  69.2668 0032984 113.7231 359.6598 14.21984888115631
SL-14 R/B               
1 15945U 85069B   26077.56373617  .00000493  00000+0  52830-4 0  9999
2 15945  82.5298  16.5902 0019281 158.4599 201.7433 14.86443216174152
SL-16 R/B               
1 16182U 85097B   26077.61931833  .00000255  00000+0  15154-3 0  9993
2 16182  71.0014 121.7550 0009637 248.8223 263.8312 14.16599532 88497
SL-14 R/B               
1 16496U 86006B   26077.47121150  .00000725  00000+0  74548-4 0  9994
2 16496  82.5237 251.4698 0075206 243.1269 116.2247 14.86827891150516
COSMOS 1743             
1 16719U 86034A   26077.37199019  .00032322  00000+0  41107-3 0  9993
2 16719  82.5280  64.7117 0002167 216.4499 143.6610 15.59207926181601
